{
	"type": "Feature",
	"geometry": {
		"type": "Point",
		"bbox": [ 6601952, 5735101.5, 0, 6601952, 5735101.5, 0 ],
		"coordinates": [ 6601952, 5735101.5, 0 ]
	},
	"crs": {
		"type": "name",
		"properties": {
			"name": "PROJCS[\"ETRS89.PolandCS2K-6\",GEOGCS[\"LL-ETRF89\",DATUM[\"ETRF89\",SPHEROID[\"GRS1980\",6378137.000,298.25722210],TOWGS84[0.0000,0.0000,0.0000,0.000000,0.000000,0.000000,0.00000000]],PRIMEM[\"Greenwich\",0],UNIT[\"Degree\",0.017453292519943295]],PROJECTION[\"Transverse_Mercator\"],PARAMETER[\"false_easting\",6500000.000],PARAMETER[\"false_northing\",0.000],PARAMETER[\"scale_factor\",0.999923000000],PARAMETER[\"central_meridian\",18.00000000000000],PARAMETER[\"latitude_of_origin\",0.00000000000000],UNIT[\"Meter\",1.00000000000000]]"
		}
	},
	"properties": {
		"rotation": [ 0, 0, 0 ],
		"scaling": [ 1, 1, 1 ]
	}
}